OBJECT_NAME,OBJECT_ID,EPOCH,MEAN_MOTION,ECCENTRICITY,INCLINATION,RA_OF_ASC_NODE,ARG_OF_PERICENTER,MEAN_ANOMALY,EPHEMERIS_TYPE,CLASSIFICATION_TYPE,NORAD_CAT_ID,ELEMENT_SET_NO,REV_AT_EPOCH,BSTAR,MEAN_MOTION_DOT,MEAN_MOTION_DDOT
LEMUR-2-FINNIAN,2025-276DX,2026-07-17T10:08:06.796032,15.00631674,.0007425,97.5344,268.4746,350.8943,9.2145,0,U,66782,999,2453,.11408E-3,.1385E-4,0
LEMUR-2-STARLIGHT,2025-276DY,2026-07-18T03:19:58.804320,14.99377389,.00147072,97.5232,268.7205,38.5159,321.7111,0,U,66783,999,3483,.31536198E-3,.381E-4,0
LEMUR-2-TARTIFLETTE,2025-276DZ,2026-07-18T03:17:43.418112,14.99360163,.00138849,97.5232,268.7268,47.0055,313.2330,0,U,66784,999,3483,.28564031E-3,.3443E-4,0
LEMUR-2-VUKASIN,2025-276EA,2026-07-18T04:07:40.129536,15.00560911,.00025889,97.5212,269.1239,45.3127,314.8308,0,U,66785,999,3479,.18593784E-3,.2289E-4,0
LEMUR-2-HOTSPUR-TOM,2025-276EB,2026-07-18T03:09:56.669760,14.99258162,.00136898,97.5213,268.6947,38.6600,321.5601,0,U,66786,999,3476,.23551954E-3,.2821E-4,0
LEMUR-2-MYRA,2025-276EC,2026-07-18T03:17:27.144672,15.00608305,.0018644,97.5220,269.0099,45.3300,314.9440,0,U,66787,999,3485,.2520207E-3,.3137E-4,0
LEMUR-2 FIKRETDENGIZ,2026-004A,2026-07-18T06:14:21.146208,14.88528561,.00099574,97.8030,197.3463,47.3369,312.8686,0,U,67363,999,2790,.21285013E-3,.1926E-4,0
TWILIGHT-1 OBJECT B,2026-004B,2026-07-17T23:05:45.496896,14.87798598,.00095408,97.8076,197.0524,37.8134,322.3751,0,U,67364,999,2786,.99977192E-4,.859E-5,0
LEMUR-2-MARIO-SOUSA,2026-004C,2026-07-18T05:44:43.602720,14.88741249,.00096246,97.8003,197.3211,48.6883,311.5161,0,U,67365,999,2791,.20392949E-3,.1853E-4,0
LEMUR-2-SONNENBLUME,2026-004E,2026-07-18T07:26:27.267648,14.88462003,.00092265,97.8002,197.3618,49.6235,310.5786,0,U,67367,999,2792,.14391664E-3,.1282E-4,0
LEMUR-2-WOBLER,2026-004F,2026-07-18T05:33:29.983392,14.88710075,.00092888,97.8054,197.4389,41.2949,318.8968,0,U,67368,999,2791,.18669337E-3,.169E-4,0
LEMUR-2-GRAM-E-SUE,2026-004H,2026-07-18T06:59:17.440512,14.88597062,.00084046,97.7987,197.3598,52.6854,307.5128,0,U,67370,999,2792,.13225615E-3,.1178E-4,0
LEMUR-2-KATIE,2026-004AA,2026-07-18T05:52:20.394336,14.90265631,.0003222,97.8047,197.8759,26.4666,333.6716,0,U,67387,999,2793,.20627832E-3,.1947E-4,0
LEMUR-2-HCS-BAZUS,2026-004AB,2026-07-18T07:26:37.768704,14.90274461,.0002716,97.8039,197.9184,27.5254,332.6107,0,U,67388,999,2794,.17935875E-3,.1686E-4,0
